CCSDS_OMM_VERS = 2.0
CREATION_DATE  = 
ORIGINATOR     = 

OBJECT_NAME    = DRAGONFLY
OBJECT_ID      = 1998-067XH
CENTER_NAME    = EARTH
REF_FRAME      = TEME
TIME_SYSTEM    = UTC
MEAN_ELEMENT_THEORY = SGP/SGP4

EPOCH          = 2026-01-16T05:11:34.019808
MEAN_MOTION    = 15.90167081
ECCENTRICITY   = .00079477
INCLINATION    = 51.6201
RA_OF_ASC_NODE = 317.1747
ARG_OF_PERICENTER = 121.1972
MEAN_ANOMALY   = 238.9814

EPHEMERIS_TYPE = 0
CLASSIFICATION_TYPE = U
NORAD_CAT_ID   = 65729
ELEMENT_SET_NO = 999
REV_AT_EPOCH   = 1861
BSTAR          = .11760474E-2
MEAN_MOTION_DOT = .362083E-2
MEAN_MOTION_DDOT = .59770704E-4

CCSDS_OMM_VERS = 2.0
CREATION_DATE  = 
ORIGINATOR     = 

OBJECT_NAME    = 1998-067XK
OBJECT_ID      = 1998-067XK
CENTER_NAME    = EARTH
REF_FRAME      = TEME
TIME_SYSTEM    = UTC
MEAN_ELEMENT_THEORY = SGP/SGP4

EPOCH          = 2026-01-16T05:47:03.855840
MEAN_MOTION    = 15.74078898
ECCENTRICITY   = .0004771
INCLINATION    = 51.6285
RA_OF_ASC_NODE = 321.1647
ARG_OF_PERICENTER = 90.1861
MEAN_ANOMALY   = 269.9685

EPHEMERIS_TYPE = 0
CLASSIFICATION_TYPE = U
NORAD_CAT_ID   = 65731
ELEMENT_SET_NO = 999
REV_AT_EPOCH   = 1856
BSTAR          = .79470214E-3
MEAN_MOTION_DOT = .117081E-2
MEAN_MOTION_DDOT = 0

CCSDS_OMM_VERS = 2.0
CREATION_DATE  = 
ORIGINATOR     = 

OBJECT_NAME    = RSP-03
OBJECT_ID      = 1998-067XL
CENTER_NAME    = EARTH
REF_FRAME      = TEME
TIME_SYSTEM    = UTC
MEAN_ELEMENT_THEORY = SGP/SGP4

EPOCH          = 2026-01-16T02:04:41.327616
MEAN_MOTION    = 15.80551154
ECCENTRICITY   = .0005848
INCLINATION    = 51.6250
RA_OF_ASC_NODE = 320.1030
ARG_OF_PERICENTER = 100.3486
MEAN_ANOMALY   = 259.8175

EPHEMERIS_TYPE = 0
CLASSIFICATION_TYPE = U
NORAD_CAT_ID   = 65732
ELEMENT_SET_NO = 999
REV_AT_EPOCH   = 1857
BSTAR          = .94425159E-3
MEAN_MOTION_DOT = .187469E-2
MEAN_MOTION_DDOT = 0

CCSDS_OMM_VERS = 2.0
CREATION_DATE  = 
ORIGINATOR     = 

OBJECT_NAME    = GHS-01
OBJECT_ID      = 1998-067XM
CENTER_NAME    = EARTH
REF_FRAME      = TEME
TIME_SYSTEM    = UTC
MEAN_ELEMENT_THEORY = SGP/SGP4

EPOCH          = 2026-01-16T12:42:37.551456
MEAN_MOTION    = 16.06065606
ECCENTRICITY   = .00078095
INCLINATION    = 51.6204
RA_OF_ASC_NODE = 313.2448
ARG_OF_PERICENTER = 146.0579
MEAN_ANOMALY   = 214.0934

EPHEMERIS_TYPE = 0
CLASSIFICATION_TYPE = U
NORAD_CAT_ID   = 65733
ELEMENT_SET_NO = 999
REV_AT_EPOCH   = 1870
BSTAR          = .14284182E-2
MEAN_MOTION_DOT = .1071987E-1
MEAN_MOTION_DDOT = .64680943E-3

CCSDS_OMM_VERS = 2.0
CREATION_DATE  = 
ORIGINATOR     = 

OBJECT_NAME    = YOTSUBA-KULOVER
OBJECT_ID      = 1998-067XN
CENTER_NAME    = EARTH
REF_FRAME      = TEME
TIME_SYSTEM    = UTC
MEAN_ELEMENT_THEORY = SGP/SGP4

EPOCH          = 2026-01-16T13:51:07.048224
MEAN_MOTION    = 15.65078214
ECCENTRICITY   = .00041546
INCLINATION    = 51.6291
RA_OF_ASC_NODE = 324.1741
ARG_OF_PERICENTER = 112.5120
MEAN_ANOMALY   = 247.6316

EPHEMERIS_TYPE = 0
CLASSIFICATION_TYPE = U
NORAD_CAT_ID   = 65941
ELEMENT_SET_NO = 999
REV_AT_EPOCH   = 1530
BSTAR          = .76976203E-3
MEAN_MOTION_DOT = .77571E-3
MEAN_MOTION_DDOT = 0

CCSDS_OMM_VERS = 2.0
CREATION_DATE  = 
ORIGINATOR     = 

OBJECT_NAME    = BOTAN
OBJECT_ID      = 1998-067XP
CENTER_NAME    = EARTH
REF_FRAME      = TEME
TIME_SYSTEM    = UTC
MEAN_ELEMENT_THEORY = SGP/SGP4

EPOCH          = 2026-01-16T02:07:51.475008
MEAN_MOTION    = 15.72046667
ECCENTRICITY   = .00048597
INCLINATION    = 51.6266
RA_OF_ASC_NODE = 324.6496
ARG_OF_PERICENTER = 111.6038
MEAN_ANOMALY   = 248.5479

EPHEMERIS_TYPE = 0
CLASSIFICATION_TYPE = U
NORAD_CAT_ID   = 65942
ELEMENT_SET_NO = 999
REV_AT_EPOCH   = 1525
BSTAR          = .93501099E-3
MEAN_MOTION_DOT = .126501E-2
MEAN_MOTION_DDOT = 0

CCSDS_OMM_VERS = 2.0
CREATION_DATE  = 
ORIGINATOR     = 

OBJECT_NAME    = E-KAGAKU-1
OBJECT_ID      = 1998-067XQ
CENTER_NAME    = EARTH
REF_FRAME      = TEME
TIME_SYSTEM    = UTC
MEAN_ELEMENT_THEORY = SGP/SGP4

EPOCH          = 2026-01-16T13:51:00.693504
MEAN_MOTION    = 15.65060511
ECCENTRICITY   = .00027284
INCLINATION    = 51.6301
RA_OF_ASC_NODE = 324.1805
ARG_OF_PERICENTER = 115.3741
MEAN_ANOMALY   = 244.7537

EPHEMERIS_TYPE = 0
CLASSIFICATION_TYPE = U
NORAD_CAT_ID   = 65943
ELEMENT_SET_NO = 999
REV_AT_EPOCH   = 1530
BSTAR          = .75384291E-3
MEAN_MOTION_DOT = .7587E-3
MEAN_MOTION_DDOT = 0

CCSDS_OMM_VERS = 2.0
CREATION_DATE  = 
ORIGINATOR     = 

OBJECT_NAME    = HRC MONOBLOCK CAMERA
OBJECT_ID      = 1998-067XR
CENTER_NAME    = EARTH
REF_FRAME      = TEME
TIME_SYSTEM    = UTC
MEAN_ELEMENT_THEORY = SGP/SGP4

EPOCH          = 2026-01-16T08:16:52.558464
MEAN_MOTION    = 15.56741442
ECCENTRICITY   = .00011021
INCLINATION    = 51.6308
RA_OF_ASC_NODE = 328.6251
ARG_OF_PERICENTER = 9.3617
MEAN_ANOMALY   = 350.7395

EPHEMERIS_TYPE = 0
CLASSIFICATION_TYPE = U
NORAD_CAT_ID   = 66052
ELEMENT_SET_NO = 999
REV_AT_EPOCH   = 1422
BSTAR          = .43890182E-3
MEAN_MOTION_DOT = .31624E-3
MEAN_MOTION_DDOT = 0

CCSDS_OMM_VERS = 2.0
CREATION_DATE  = 
ORIGINATOR     = 

OBJECT_NAME    = HTV-X1
OBJECT_ID      = 2025-241A
CENTER_NAME    = EARTH
REF_FRAME      = TEME
TIME_SYSTEM    = UTC
MEAN_ELEMENT_THEORY = SGP/SGP4

EPOCH          = 2026-01-16T08:52:15.244032
MEAN_MOTION    = 15.49326051
ECCENTRICITY   = .00077838
INCLINATION    = 51.6334
RA_OF_ASC_NODE = 331.0355
ARG_OF_PERICENTER = 24.7534
MEAN_ANOMALY   = 335.3826

EPHEMERIS_TYPE = 0
CLASSIFICATION_TYPE = U
NORAD_CAT_ID   = 66174
ELEMENT_SET_NO = 999
REV_AT_EPOCH   = 51
BSTAR          = .18173329E-3
MEAN_MOTION_DOT = .9695E-4
MEAN_MOTION_DDOT = 0

CCSDS_OMM_VERS = 2.0
CREATION_DATE  = 
ORIGINATOR     = 

OBJECT_NAME    = SZ-21 MODULE
OBJECT_ID      = 2025-246C
CENTER_NAME    = EARTH
REF_FRAME      = TEME
TIME_SYSTEM    = UTC
MEAN_ELEMENT_THEORY = SGP/SGP4

EPOCH          = 2026-01-16T13:01:39.064800
MEAN_MOTION    = 15.64574563
ECCENTRICITY   = .00023099
INCLINATION    = 41.4742
RA_OF_ASC_NODE = 163.4092
ARG_OF_PERICENTER = 185.0675
MEAN_ANOMALY   = 175.0142

EPHEMERIS_TYPE = 0
CLASSIFICATION_TYPE = U
NORAD_CAT_ID   = 66515
ELEMENT_SET_NO = 999
REV_AT_EPOCH   = 989
BSTAR          = .26293766E-3
MEAN_MOTION_DOT = .25874E-3
MEAN_MOTION_DDOT = 0

CCSDS_OMM_VERS = 2.0
CREATION_DATE  = 
ORIGINATOR     = 

OBJECT_NAME    = SHENZHOU-22
OBJECT_ID      = 2025-272A
CENTER_NAME    = EARTH
REF_FRAME      = TEME
TIME_SYSTEM    = UTC
MEAN_ELEMENT_THEORY = SGP/SGP4

EPOCH          = 2026-01-16T14:34:27.969024
MEAN_MOTION    = 15.60562549
ECCENTRICITY   = .00112662
INCLINATION    = 41.4653
RA_OF_ASC_NODE = 164.7931
ARG_OF_PERICENTER = 297.5042
MEAN_ANOMALY   = 62.4652

EPHEMERIS_TYPE = 0
CLASSIFICATION_TYPE = U
NORAD_CAT_ID   = 66645
ELEMENT_SET_NO = 999
REV_AT_EPOCH   = 26764
BSTAR          = .18057507E-3
MEAN_MOTION_DOT = .15077E-3
MEAN_MOTION_DDOT = 0

CCSDS_OMM_VERS = 2.0
CREATION_DATE  = 
ORIGINATOR     = 

OBJECT_NAME    = SOYUZ-MS 28
OBJECT_ID      = 2025-275A
CENTER_NAME    = EARTH
REF_FRAME      = TEME
TIME_SYSTEM    = UTC
MEAN_ELEMENT_THEORY = SGP/SGP4

EPOCH          = 2026-01-16T08:52:15.244032
MEAN_MOTION    = 15.49326051
ECCENTRICITY   = .00077838
INCLINATION    = 51.6334
RA_OF_ASC_NODE = 331.0355
ARG_OF_PERICENTER = 24.7534
MEAN_ANOMALY   = 335.3826

EPHEMERIS_TYPE = 0
CLASSIFICATION_TYPE = U
NORAD_CAT_ID   = 66664
ELEMENT_SET_NO = 999
REV_AT_EPOCH   = 128
BSTAR          = .18173329E-3
MEAN_MOTION_DOT = .9695E-4
MEAN_MOTION_DDOT = 0

